OBJECT_NAME,OBJECT_ID,EPOCH,MEAN_MOTION,ECCENTRICITY,INCLINATION,RA_OF_ASC_NODE,ARG_OF_PERICENTER,MEAN_ANOMALY,EPHEMERIS_TYPE,CLASSIFICATION_TYPE,NORAD_CAT_ID,ELEMENT_SET_NO,REV_AT_EPOCH,BSTAR,MEAN_MOTION_DOT,MEAN_MOTION_DDOT
ONEWEB-0312,2021-075Z,2026-06-15T23:19:35.608224,13.17652709,.000218,87.9132,6.1152,91.6621,268.4760,0,U,49098,999,23344,.71951E-4,.41E-6,0
ONEWEB-0313,2021-075AA,2026-06-15T23:26:39.631776,13.17648058,.0001988,87.9129,6.1200,86.4245,273.7114,0,U,49099,999,23343,.95094E-4,.5E-6,0
ONEWEB-0314,2021-075AB,2026-06-16T02:16:58.283328,13.17649271,.0002209,87.9142,6.0688,91.3351,268.8034,0,U,49100,999,23342,.12028E-3,.6E-6,0
ONEWEB-0315,2021-075AC,2026-06-16T01:33:31.097664,13.12442884,.0002073,87.8947,350.8674,81.8637,278.2727,0,U,49101,999,23502,-.68889E-3,-.235E-5,0
ONEWEB-0316,2021-075AD,2026-06-16T04:08:17.227104,13.18687013,.0001912,87.9163,335.6578,91.8935,268.2417,0,U,49102,999,23707,.1278E-3,.63E-6,0
ONEWEB-0317,2021-075AE,2026-06-16T01:38:23.903808,13.12442720,.0001498,87.8949,350.8904,113.9073,246.2213,0,U,49103,999,23504,-.94005E-3,-.325E-5,0
ONEWEB-0318,2021-075AF,2026-06-16T04:03:26.169696,13.18686289,.0002015,87.9170,335.6600,86.7010,273.4352,0,U,49104,999,23703,-.15193E-3,-.47E-6,0
ONEWEB-0319,2021-075AG,2026-06-16T00:49:28.845696,13.17649063,.0002226,87.9132,6.0974,76.8012,283.3367,0,U,49105,999,23345,.33631E-4,.26E-6,0
ONEWEB-0323,2021-075AH,2026-06-15T23:21:47.388960,13.12442596,.0002305,87.8947,350.8907,82.5450,277.5940,0,U,49106,999,23439,.77675E-3,.292E-5,0
ONEWEB-0329,2021-075AJ,2026-06-16T01:01:37.920864,13.17648795,.0002023,87.9133,6.0965,88.7275,271.4089,0,U,49107,999,23343,.29239E-4,.24E-6,0
ONEWEB-0330,2021-075AK,2026-06-16T01:35:52.073088,13.17648681,.000202,87.9135,6.1120,93.2817,266.8545,0,U,49108,999,23347,.57673E-4,.35E-6,0
ONEWEB-0292,2021-083A,2026-06-16T04:12:22.521888,13.13471468,.0001934,87.8948,320.4398,91.8775,268.2576,0,U,49186,999,23079,.74753E-3,.286E-5,0
ONEWEB-0303,2021-083B,2026-06-16T00:20:03.149376,13.18687221,.000197,87.9164,335.6897,89.1903,270.9455,0,U,49187,999,22982,-.43877E-4,-.4E-7,0
ONEWEB-0306,2021-083C,2026-06-15T22:16:12.876384,13.18687714,.0001728,87.9170,335.6946,99.0340,261.0988,0,U,49188,999,22985,.81341E-4,.45E-6,0
ONEWEB-0307,2021-083D,2026-06-16T04:03:49.963392,13.13470742,.0001964,87.8952,320.4380,94.9537,265.1817,0,U,49189,999,23079,.25845E-3,.107E-5,0
ONEWEB-0320,2021-083E,2026-06-16T04:13:08.008032,13.18685872,.0001823,87.9159,335.6635,94.2187,265.9154,0,U,49190,999,22984,-.36748E-4,-.2E-7,0
ONEWEB-0321,2021-083F,2026-06-15T23:44:04.339104,13.20771749,.0001792,87.9193,274.6735,107.2145,252.9185,0,U,49191,999,23667,-.78845E-4,-.19E-6,0
ONEWEB-0322,2021-083G,2026-06-16T03:57:42.327072,13.13468937,.0001394,87.8951,320.4393,101.3690,258.7595,0,U,49192,999,23078,-.54372E-4,-.7E-7,0
ONEWEB-0324,2021-083H,2026-06-15T22:06:29.860416,13.18685265,.0001954,87.9171,335.7013,97.4764,262.6590,0,U,49193,999,22983,.23202E-4,.22E-6,0
ONEWEB-0325,2021-083J,2026-06-15T22:11:21.662592,13.18685397,.0001798,87.9160,335.7091,90.3802,269.7536,0,U,49194,999,22984,-.73798E-4,-.16E-6,0
ONEWEB-0326,2021-083K,2026-06-16T04:01:12.113184,13.18685334,.000201,87.9170,335.6585,85.9004,274.2358,0,U,49195,999,22986,-.83E-4,-.2E-6,0
ONEWEB-0327,2021-083L,2026-06-16T04:00:47.832192,13.18685576,.0001951,87.9160,335.6628,81.0582,279.0771,0,U,49196,999,22988,-.10164E-4,.9E-7,0
ONEWEB-0328,2021-083M,2026-06-16T03:43:06.264768,13.13469877,.0001958,87.8961,320.4143,99.4545,260.6806,0,U,49197,999,23076,-.70667E-3,-.245E-5,0
ONEWEB-0331,2021-083N,2026-06-16T03:51:16.909632,13.18687091,.0002109,87.9170,335.6536,86.3852,273.7521,0,U,49198,999,22987,-.15518E-3,-.48E-6,0
ONEWEB-0333,2021-083P,2026-06-16T03:35:47.243040,13.13470031,.0001843,87.8949,320.4417,95.0506,265.0833,0,U,49199,999,23077,-.804E-3,-.281E-5,0
ONEWEB-0334,2021-083Q,2026-06-15T20:29:36.736224,13.21267193,.00011892,87.9189,274.7116,134.8842,225.2388,0,U,49200,999,23661,-.22031553E-2,-.889E-5,0
ONEWEB-0335,2021-083R,2026-06-16T03:28:28.617024,13.13470403,.0002006,87.8953,320.4395,93.1840,266.9519,0,U,49201,999,23078,-.94378E-3,-.332E-5,0
ONEWEB-0336,2021-083S,2026-06-16T02:47:02.258304,13.13470056,.0002234,87.8951,320.4409,93.0424,267.0961,0,U,49202,999,23077,.59128E-3,.229E-5,0
ONEWEB-0337,2021-083T,2026-06-15T21:32:22.936416,13.13469451,.0002028,87.8950,320.4905,98.3673,261.7686,0,U,49203,999,23074,-.85234E-4,-.18E-6,0
ONEWEB-0338,2021-083U,2026-06-16T01:21:01.764288,13.20773016,.0001687,87.9184,274.6741,103.5024,256.6298,0,U,49204,999,23666,-.40497E-3,-.152E-5,0
ONEWEB-0339,2021-083V,2026-06-16T03:13:50.749824,13.13469739,.0001645,87.8951,320.4356,103.7757,256.3555,0,U,49205,999,23075,-.73498E-3,-.256E-5,0
