ONEWEB-0312             
1 49098U 21075Z   26166.97193991  .00000041  00000+0  71951-4 0  9995
2 49098  87.9132   6.1152 0002180  91.6621 268.4760 13.17652709233443
ONEWEB-0313             
1 49099U 21075AA  26166.97684759  .00000050  00000+0  95094-4 0  9997
2 49099  87.9129   6.1200 0001988  86.4245 273.7114 13.17648058233436
ONEWEB-0314             
1 49100U 21075AB  26167.09511902  .00000060  00000+0  12028-3 0  9999
2 49100  87.9142   6.0688 0002209  91.3351 268.8034 13.17649271233426
ONEWEB-0315             
1 49101U 21075AC  26167.06494326 -.00000235  00000+0 -68889-3 0  9999
2 49101  87.8947 350.8674 0002073  81.8637 278.2727 13.12442884235022
ONEWEB-0316             
1 49102U 21075AD  26167.17242161  .00000063  00000+0  12780-3 0  9996
2 49102  87.9163 335.6578 0001912  91.8935 268.2417 13.18687013237074
ONEWEB-0317             
1 49103U 21075AE  26167.06833222 -.00000325  00000+0 -94005-3 0  9992
2 49103  87.8949 350.8904 0001498 113.9073 246.2213 13.12442720235049
ONEWEB-0318             
1 49104U 21075AF  26167.16905289 -.00000047  00000+0 -15193-3 0  9999
2 49104  87.9170 335.6600 0002015  86.7010 273.4352 13.18686289237038
ONEWEB-0319             
1 49105U 21075AG  26167.03436164  .00000026  00000+0  33631-4 0  9990
2 49105  87.9132   6.0974 0002226  76.8012 283.3367 13.17649063233452
ONEWEB-0323             
1 49106U 21075AH  26166.97346515  .00000292  00000+0  77675-3 0  9993
2 49106  87.8947 350.8907 0002305  82.5450 277.5940 13.12442596234393
ONEWEB-0329             
1 49107U 21075AJ  26167.04280001  .00000024  00000+0  29239-4 0  9997
2 49107  87.9133   6.0965 0002023  88.7275 271.4089 13.17648795233431
ONEWEB-0330             
1 49108U 21075AK  26167.06657492  .00000035  00000+0  57673-4 0  9997
2 49108  87.9135   6.1120 0002020  93.2817 266.8545 13.17648681233471
ONEWEB-0292             
1 49186U 21083A   26167.17526067  .00000286  00000+0  74753-3 0  9992
2 49186  87.8948 320.4398 0001934  91.8775 268.2576 13.13471468230792
ONEWEB-0303             
1 49187U 21083B   26167.01392534 -.00000004  00000+0 -43877-4 0  9990
2 49187  87.9164 335.6897 0001970  89.1903 270.9455 13.18687221229828
ONEWEB-0306             
1 49188U 21083C   26166.92792681  .00000045  00000+0  81341-4 0  9998
2 49188  87.9170 335.6946 0001728  99.0340 261.0988 13.18687714229859
ONEWEB-0307             
1 49189U 21083D   26167.16932828  .00000107  00000+0  25845-3 0  9990
2 49189  87.8952 320.4380 0001964  94.9537 265.1817 13.13470742230792
ONEWEB-0320             
1 49190U 21083E   26167.17578713 -.00000002  00000+0 -36748-4 0  9993
2 49190  87.9159 335.6635 0001823  94.2187 265.9154 13.18685872229846
ONEWEB-0321             
1 49191U 21083F   26166.98893911 -.00000019  00000+0 -78845-4 0  9994
2 49191  87.9193 274.6735 0001792 107.2145 252.9185 13.20771749236673
ONEWEB-0322             
1 49192U 21083G   26167.16507323 -.00000007  00000+0 -54372-4 0  9991
2 49192  87.8951 320.4393 0001394 101.3690 258.7595 13.13468937230782
ONEWEB-0324             
1 49193U 21083H   26166.92117894  .00000022  00000+0  23202-4 0  9998
2 49193  87.9171 335.7013 0001954  97.4764 262.6590 13.18685265229838
ONEWEB-0325             
1 49194U 21083J   26166.92455628 -.00000016  00000+0 -73798-4 0  9999
2 49194  87.9160 335.7091 0001798  90.3802 269.7536 13.18685397229849
ONEWEB-0326             
1 49195U 21083K   26167.16750131 -.00000020  00000+0 -83000-4 0  9996
2 49195  87.9170 335.6585 0002010  85.9004 274.2358 13.18685334229866
ONEWEB-0327             
1 49196U 21083L   26167.16722028  .00000009  00000+0 -10164-4 0  9998
2 49196  87.9160 335.6628 0001951  81.0582 279.0771 13.18685576229887
ONEWEB-0328             
1 49197U 21083M   26167.15493362 -.00000245  00000+0 -70667-3 0  9990
2 49197  87.8961 320.4143 0001958  99.4545 260.6806 13.13469877230762
ONEWEB-0331             
1 49198U 21083N   26167.16061238 -.00000048  00000+0 -15518-3 0  9990
2 49198  87.9170 335.6536 0002109  86.3852 273.7521 13.18687091229879
ONEWEB-0333             
1 49199U 21083P   26167.14985235 -.00000281  00000+0 -80400-3 0  9992
2 49199  87.8949 320.4417 0001843  95.0506 265.0833 13.13470031230770
ONEWEB-0334             
1 49200U 21083Q   26166.85389741 -.00000889  00000+0 -22032-2 0  9992
2 49200  87.9189 274.7116 0001189 134.8842 225.2388 13.21267193236619
ONEWEB-0335             
1 49201U 21083R   26167.14477566 -.00000332  00000+0 -94378-3 0  9995
2 49201  87.8953 320.4395 0002006  93.1840 266.9519 13.13470403230781
ONEWEB-0336             
1 49202U 21083S   26167.11599836  .00000229  00000+0  59128-3 0  9995
2 49202  87.8951 320.4409 0002234  93.0424 267.0961 13.13470056230772
ONEWEB-0337             
1 49203U 21083T   26166.89748769 -.00000018  00000+0 -85234-4 0  9997
2 49203  87.8950 320.4905 0002028  98.3673 261.7686 13.13469451230747
ONEWEB-0338             
1 49204U 21083U   26167.05627042 -.00000152  00000+0 -40497-3 0  9997
2 49204  87.9184 274.6741 0001687 103.5024 256.6298 13.20773016236667
ONEWEB-0339             
1 49205U 21083V   26167.13461516 -.00000256  00000+0 -73498-3 0  9991
2 49205  87.8951 320.4356 0001645 103.7757 256.3555 13.13469739230753
